<?xml version="1.0" encoding="utf-8"?><gpx creator="Health" version="1.0" xmlns:xsi="http://www.w3.org/2001/XMLSchema-instance" xmlns="http://www.topografix.com/GPX/1/0" xsi:schemaLocation="http://www.topografix.com/GPX/1/0 http://www.topografix.com/GPX/1/0/gpx.xsd">
  <metadata>
    <time>1970-01-21T15:15:15.167Z</time>
  </metadata>
  <trk>
    <type>户外步行</type>
    <extensions>
      <totalTime>1178</totalTime>
      <totalDistance>788.09</totalDistance>
      <cumulativeClimb>4.69574708486266</cumulativeClimb>
      <cumulativeDecrease>4.338875081666231</cumulativeDecrease>
      <routeType>0</routeType>
    </extensions>
    <trkseg>
      <trkpt lat="26.030448008442914" lon="119.19314830706404">
        <ele>150.23002925058532</ele>
        <time>1970-01-21T15:15:15.167Z</time>
      </trkpt>
      <trkpt lat="26.030470007372877" lon="119.19316030595166">
        <ele>150.23002925058532</ele>
        <time>1970-01-21T15:15:15.171Z</time>
      </trkpt>
      <trkpt lat="26.030484004868526" lon="119.19318830334224">
        <ele>150.23002925058532</ele>
        <time>1970-01-21T15:15:15.177Z</time>
      </trkpt>
      <trkpt lat="26.030483001640853" lon="119.19322429997922">
        <ele>150.23002925058532</ele>
        <time>1970-01-21T15:15:15.181Z</time>
      </trkpt>
      <trkpt lat="26.030482998229616" lon="119.19326229642401">
        <ele>150.23002925058532</ele>
        <time>1970-01-21T15:15:15.187Z</time>
      </trkpt>
      <trkpt lat="26.030480995083153" lon="119.19329729314401">
        <ele>150.23002925058532</ele>
        <time>1970-01-21T15:15:15.191Z</time>
      </trkpt>
      <trkpt lat="26.030473991661832" lon="119.19333528957833">
        <ele>150.23002925058532</ele>
        <time>1970-01-21T15:15:15.197Z</time>
      </trkpt>
      <trkpt lat="26.030468988416704" lon="119.19337128619611">
        <ele>150.23002925058532</ele>
        <time>1970-01-21T15:15:15.201Z</time>
      </trkpt>
      <trkpt lat="26.030465984987114" lon="119.19340928262034">
        <ele>150.23002925058532</ele>
        <time>1970-01-21T15:15:15.207Z</time>
      </trkpt>
      <trkpt lat="26.030465981734523" lon="119.19344527922918">
        <ele>150.23002925058532</ele>
        <time>1970-01-21T15:15:15.213Z</time>
      </trkpt>
      <trkpt lat="26.030465978387323" lon="119.19348227573992">
        <ele>150.23002925058532</ele>
        <time>1970-01-21T15:15:15.219Z</time>
      </trkpt>
      <trkpt lat="26.03046397494477" lon="119.19352027214971">
        <ele>150.23002925058532</ele>
        <time>1970-01-21T15:15:15.225Z</time>
      </trkpt>
      <trkpt lat="26.030462971497865" lon="119.1935582685545">
        <ele>150.23002925058532</ele>
        <time>1970-01-21T15:15:15.231Z</time>
      </trkpt>
      <trkpt lat="26.030457968227246" lon="119.1935942651424">
        <ele>150.23002925058532</ele>
        <time>1970-01-21T15:15:15.241Z</time>
      </trkpt>
      <trkpt lat="26.03044696522425" lon="119.19362726200977">
        <ele>150.23002925058532</ele>
        <time>1970-01-21T15:15:15.249Z</time>
      </trkpt>
      <trkpt lat="26.030430962399205" lon="119.1936582590614">
        <ele>150.23002925058532</ele>
        <time>1970-01-21T15:15:15.255Z</time>
      </trkpt>
      <trkpt lat="26.030412959661998" lon="119.19368825620487">
        <ele>150.23002925058532</ele>
        <time>1970-01-21T15:15:15.259Z</time>
      </trkpt>
      <trkpt lat="26.030397956648432" lon="119.193721253061">
        <ele>150.23002925058532</ele>
        <time>1970-01-21T15:15:15.265Z</time>
      </trkpt>
      <trkpt lat="26.030384953448948" lon="119.19375624972363">
        <ele>150.23002925058532</ele>
        <time>1970-01-21T15:15:15.271Z</time>
      </trkpt>
      <trkpt lat="26.03036995024564" lon="119.19379124638023">
        <ele>150.23002925058532</ele>
        <time>1970-01-21T15:15:15.277Z</time>
      </trkpt>
      <trkpt lat="26.030349947953077" lon="119.19381624398794">
        <ele>150.23002925058532</ele>
        <time>1970-01-21T15:15:15.283Z</time>
      </trkpt>
      <trkpt lat="26.030322946755547" lon="119.19382924273849">
        <ele>150.23002925058532</ele>
        <time>1970-01-21T15:15:15.289Z</time>
      </trkpt>
      <trkpt lat="26.03029094647317" lon="119.19383224244318">
        <ele>150.23002925058532</ele>
        <time>1970-01-21T15:15:15.295Z</time>
      </trkpt>
      <trkpt lat="26.03025694646553" lon="119.19383224243408">
        <ele>150.23002925058532</ele>
        <time>1970-01-21T15:15:15.301Z</time>
      </trkpt>
      <trkpt lat="26.030223946732924" lon="119.19382924271196">
        <ele>150.23002925058532</ele>
        <time>1970-01-21T15:15:15.307Z</time>
      </trkpt>
      <trkpt lat="26.030191947000056" lon="119.19382624299018">
        <ele>150.23002925058532</ele>
        <time>1970-01-21T15:15:15.313Z</time>
      </trkpt>
      <trkpt lat="26.030159947084385" lon="119.19382524307717">
        <ele>150.23002925058532</ele>
        <time>1970-01-21T15:15:15.319Z</time>
      </trkpt>
      <trkpt lat="26.0301239472603" lon="119.19382324325863">
        <ele>150.23002925058532</ele>
        <time>1970-01-21T15:15:15.325Z</time>
      </trkpt>
      <trkpt lat="26.030088947161396" lon="119.19382424315368">
        <ele>150.23002925058532</ele>
        <time>1970-01-21T15:15:15.331Z</time>
      </trkpt>
      <trkpt lat="26.030054947062382" lon="119.19382524304905">
        <ele>150.23002925058532</ele>
        <time>1970-01-21T15:15:15.337Z</time>
      </trkpt>
      <trkpt lat="26.03002394668863" lon="119.19382924265847">
        <ele>150.23002925058532</ele>
        <time>1970-01-21T15:15:15.343Z</time>
      </trkpt>
      <trkpt lat="26.02999494604148" lon="119.19383624198133">
        <ele>150.23002925058532</ele>
        <time>1970-01-21T15:15:15.349Z</time>
      </trkpt>
      <trkpt lat="26.02996494557622" lon="119.19384124149532">
        <ele>150.23002925058532</ele>
        <time>1970-01-21T15:15:15.355Z</time>
      </trkpt>
      <trkpt lat="26.029935945479078" lon="119.19384224139195">
        <ele>150.23002925058532</ele>
        <time>1970-01-21T15:15:15.361Z</time>
      </trkpt>
      <trkpt lat="26.02990294556426" lon="119.19384124147875">
        <ele>150.23002925058532</ele>
        <time>1970-01-21T15:15:15.367Z</time>
      </trkpt>
      <trkpt lat="26.029869945556623" lon="119.19384124146993">
        <ele>150.23002925058532</ele>
        <time>1970-01-21T15:15:15.371Z</time>
      </trkpt>
      <trkpt lat="26.02983594527493" lon="119.19384424117384">
        <ele>150.23002925058532</ele>
        <time>1970-01-21T15:15:15.377Z</time>
      </trkpt>
      <trkpt lat="26.029804944900647" lon="119.19384824078311">
        <ele>150.23002925058532</ele>
        <time>1970-01-21T15:15:15.383Z</time>
      </trkpt>
      <trkpt lat="26.029772944894766" lon="119.19384824077453">
        <ele>150.23002925058532</ele>
        <time>1970-01-21T15:15:15.389Z</time>
      </trkpt>
      <trkpt lat="26.029740945162633" lon="119.19384524105293">
        <ele>150.23002925058532</ele>
        <time>1970-01-21T15:15:15.395Z</time>
      </trkpt>
      <trkpt lat="26.02970694552238" lon="119.19384124142623">
        <ele>150.23002925058532</ele>
        <time>1970-01-21T15:15:15.401Z</time>
      </trkpt>
      <trkpt lat="26.029672945606027" lon="119.19384024151276">
        <ele>150.23002925058532</ele>
        <time>1970-01-21T15:15:15.405Z</time>
      </trkpt>
      <trkpt lat="26.0296399456918" lon="119.19383924159958">
        <ele>150.23002925058532</ele>
        <time>1970-01-21T15:15:15.411Z</time>
      </trkpt>
      <trkpt lat="26.029606945777363" lon="119.19383824168635">
        <ele>150.23002925058532</ele>
        <time>1970-01-21T15:15:15.417Z</time>
      </trkpt>
      <trkpt lat="26.029570945493848" lon="119.19384124138993">
        <ele>150.23002925058532</ele>
        <time>1970-01-21T15:15:15.423Z</time>
      </trkpt>
      <trkpt lat="26.029534944752687" lon="119.19384924061538">
        <ele>150.23002925058532</ele>
        <time>1970-01-21T15:15:15.429Z</time>
      </trkpt>
      <trkpt lat="26.02949894373756" lon="119.19386023955285">
        <ele>150.23002925058532</ele>
        <time>1970-01-21T15:15:15.435Z</time>
      </trkpt>
      <trkpt lat="26.029463943088494" lon="119.19386723887372">
        <ele>150.23002925058532</ele>
        <time>1970-01-21T15:15:15.441Z</time>
      </trkpt>
      <trkpt lat="26.0294309428074" lon="119.19387023857786">
        <ele>150.23002925058532</ele>
        <time>1970-01-21T15:15:15.447Z</time>
      </trkpt>
      <trkpt lat="26.02939794289238" lon="119.1938692386648">
        <ele>150.23002925058532</ele>
        <time>1970-01-21T15:15:15.453Z</time>
      </trkpt>
      <trkpt lat="26.029364943068156" lon="119.19386723884743">
        <ele>150.23002925058532</ele>
        <time>1970-01-21T15:15:15.459Z</time>
      </trkpt>
      <trkpt lat="26.02932994315217" lon="119.1938662389338">
        <ele>150.23002925058532</ele>
        <time>1970-01-21T15:15:15.465Z</time>
      </trkpt>
      <trkpt lat="26.029295943236225" lon="119.19386523902044">
        <ele>150.23002925058532</ele>
        <time>1970-01-21T15:15:15.471Z</time>
      </trkpt>
      <trkpt lat="26.02925994323071" lon="119.19386523901082">
        <ele>150.23002925058532</ele>
        <time>1970-01-21T15:15:15.477Z</time>
      </trkpt>
      <trkpt lat="26.029223943038733" lon="119.19386723880979">
        <ele>150.23002925058532</ele>
        <time>1970-01-21T15:15:15.483Z</time>
      </trkpt>
      <trkpt lat="26.029186942666204" lon="119.19387123841702">
        <ele>150.23002925058532</ele>
        <time>1970-01-21T15:15:15.489Z</time>
      </trkpt>
      <trkpt lat="26.02914894219953" lon="119.19387623792824">
        <ele>150.23002925058532</ele>
        <time>1970-01-21T15:15:15.499Z</time>
      </trkpt>
      <trkpt lat="26.029110941823376" lon="119.19388023753507">
        <ele>150.23002925058532</ele>
        <time>1970-01-21T15:15:15.505Z</time>
      </trkpt>
      <trkpt lat="26.029074941725455" lon="119.1938812374297">
        <ele>150.23002925058532</ele>
        <time>1970-01-21T15:15:15.511Z</time>
      </trkpt>
      <trkpt lat="26.029041941810764" lon="119.19388023751665">
        <ele>150.23002925058532</ele>
        <time>1970-01-21T15:15:15.519Z</time>
      </trkpt>
      <trkpt lat="26.029012941897147" lon="119.19387923760466">
        <ele>150.23002925058532</ele>
        <time>1970-01-21T15:15:15.523Z</time>
      </trkpt>
      <trkpt lat="26.028981942073912" lon="119.19387723778792">
        <ele>150.23002925058532</ele>
        <time>1970-01-21T15:15:15.537Z</time>
      </trkpt>
      <trkpt lat="26.028952941884196" lon="119.19387923758862">
        <ele>150.23002925058532</ele>
        <time>1970-01-21T15:15:15.543Z</time>
      </trkpt>
      <trkpt lat="26.028921941419693" lon="119.19388423710136">
        <ele>150.23002925058532</ele>
        <time>1970-01-21T15:15:15.553Z</time>
      </trkpt>
      <trkpt lat="26.02889394086411" lon="119.19389023651894">
        <ele>150.23002925058532</ele>
        <time>1970-01-21T15:15:15.557Z</time>
      </trkpt>
      <trkpt lat="26.028864940581954" lon="119.19389323622377">
        <ele>150.23002925058532</ele>
        <time>1970-01-21T15:15:15.561Z</time>
      </trkpt>
      <trkpt lat="26.028835940759187" lon="119.19389123640758">
        <ele>150.23002925058532</ele>
        <time>1970-01-21T15:15:15.565Z</time>
      </trkpt>
      <trkpt lat="26.028805940935843" lon="119.19388923659122">
        <ele>150.23002925058532</ele>
        <time>1970-01-21T15:15:15.571Z</time>
      </trkpt>
      <trkpt lat="26.028772941296058" lon="119.19388523696541">
        <ele>150.23002925058532</ele>
        <time>1970-01-21T15:15:15.577Z</time>
      </trkpt>
      <trkpt lat="26.028742942390682" lon="119.19387323810675">
        <ele>150.23002925058532</ele>
        <time>1970-01-21T15:15:15.583Z</time>
      </trkpt>
      <trkpt lat="26.02872594486301" lon="119.1938462406848">
        <ele>150.23002925058532</ele>
        <time>1970-01-21T15:15:15.589Z</time>
      </trkpt>
      <trkpt lat="26.02872194816007" lon="119.19381024412415">
        <ele>150.23002925058532</ele>
        <time>1970-01-21T15:15:15.593Z</time>
      </trkpt>
      <trkpt lat="26.028724951728744" lon="119.19377124784678">
        <ele>150.23002925058532</ele>
        <time>1970-01-21T15:15:15.599Z</time>
      </trkpt>
      <trkpt lat="26.02872695501861" lon="119.19373525127992">
        <ele>150.23002925058532</ele>
        <time>1970-01-21T15:15:15.605Z</time>
      </trkpt>
      <trkpt lat="26.028726958486352" lon="119.19369725489746">
        <ele>150.23002925058532</ele>
        <time>1970-01-21T15:15:15.611Z</time>
      </trkpt>
      <trkpt lat="26.02872496194916" lon="119.19365925850836">
        <ele>150.23002925058532</ele>
        <time>1970-01-21T15:15:15.617Z</time>
      </trkpt>
      <trkpt lat="26.02872296558932" lon="119.19361926230414">
        <ele>150.23002925058532</ele>
        <time>1970-01-21T15:15:15.623Z</time>
      </trkpt>
      <trkpt lat="26.028719969224177" lon="119.1935792660947">
        <ele>150.23002925058532</ele>
        <time>1970-01-21T15:15:15.631Z</time>
      </trkpt>
      <trkpt lat="26.028713972762812" lon="119.19354026978512">
        <ele>150.23002925058532</ele>
        <time>1970-01-21T15:15:15.637Z</time>
      </trkpt>
      <trkpt lat="26.02870397629556" lon="119.1935012734688">
        <ele>150.23002925058532</ele>
        <time>1970-01-21T15:15:15.643Z</time>
      </trkpt>
      <trkpt lat="26.028687979189797" lon="119.19346927648387">
        <ele>150.23002925058532</ele>
        <time>1970-01-21T15:15:15.647Z</time>
      </trkpt>
      <trkpt lat="26.02866498144637" lon="119.19344427883556">
        <ele>150.23002925058532</ele>
        <time>1970-01-21T15:15:15.653Z</time>
      </trkpt>
      <trkpt lat="26.028634982704947" lon="119.19343028014684">
        <ele>150.23002925058532</ele>
        <time>1970-01-21T15:15:15.659Z</time>
      </trkpt>
      <trkpt lat="26.02860098315105" lon="119.1934252806087">
        <ele>150.23002925058532</ele>
        <time>1970-01-21T15:15:15.665Z</time>
      </trkpt>
      <trkpt lat="26.028563982783325" lon="119.19342928022213">
        <ele>150.23002925058532</ele>
        <time>1970-01-21T15:15:15.671Z</time>
      </trkpt>
      <trkpt lat="26.02852898232476" lon="119.19343427974164">
        <ele>150.23002925058532</ele>
        <time>1970-01-21T15:15:15.675Z</time>
      </trkpt>
      <trkpt lat="26.02849698240936" lon="119.19343327982723">
        <ele>150.23002925058532</ele>
        <time>1970-01-21T15:15:15.681Z</time>
      </trkpt>
      <trkpt lat="26.02847798357993" lon="119.19342028104681">
        <ele>150.23002925058532</ele>
        <time>1970-01-21T15:15:15.685Z</time>
      </trkpt>
      <trkpt lat="26.028466986196396" lon="119.19339128377297">
        <ele>150.23002925058532</ele>
        <time>1970-01-21T15:15:15.691Z</time>
      </trkpt>
      <trkpt lat="26.028456989711454" lon="119.19335228743621">
        <ele>150.23002925058532</ele>
        <time>1970-01-21T15:15:15.697Z</time>
      </trkpt>
      <trkpt lat="26.02843699295011" lon="119.19331629081073">
        <ele>150.23002925058532</ele>
        <time>1970-01-21T15:15:15.703Z</time>
      </trkpt>
      <trkpt lat="26.02841199546442" lon="119.19328829342965">
        <ele>150.23002925058532</ele>
        <time>1970-01-21T15:15:15.709Z</time>
      </trkpt>
      <trkpt lat="26.028382996716353" lon="119.19327429473277">
        <ele>150.23002925058532</ele>
        <time>1970-01-21T15:15:15.715Z</time>
      </trkpt>
      <trkpt lat="26.028352997160503" lon="119.1932692951928">
        <ele>150.23002925058532</ele>
        <time>1970-01-21T15:15:15.721Z</time>
      </trkpt>
      <trkpt lat="26.028321996975432" lon="119.19327129499725">
        <ele>150.23002925058532</ele>
        <time>1970-01-21T15:15:15.725Z</time>
      </trkpt>
      <trkpt lat="26.028289996789685" lon="119.19327329480141">
        <ele>150.23002925058532</ele>
        <time>1970-01-21T15:15:15.731Z</time>
      </trkpt>
      <trkpt lat="26.02825999705313" lon="119.19327029507426">
        <ele>150.23002925058532</ele>
        <time>1970-01-21T15:15:15.737Z</time>
      </trkpt>
      <trkpt lat="26.028229997586255" lon="119.19326429562791">
        <ele>150.23002925058532</ele>
        <time>1970-01-21T15:15:15.743Z</time>
      </trkpt>
      <trkpt lat="26.028199998747073" lon="119.19325129683713">
        <ele>150.23002925058532</ele>
        <time>1970-01-21T15:15:15.749Z</time>
      </trkpt>
      <trkpt lat="26.028169000357575" lon="119.19323329851281">
        <ele>150.23002925058532</ele>
        <time>1970-01-21T15:15:15.755Z</time>
      </trkpt>
      <trkpt lat="26.028138002415176" lon="119.19321030065485">
        <ele>150.23002925058532</ele>
        <time>1970-01-21T15:15:15.761Z</time>
      </trkpt>
      <trkpt lat="26.028112004650318" lon="119.19318530298216">
        <ele>150.23002925058532</ele>
        <time>1970-01-21T15:15:15.767Z</time>
      </trkpt>
      <trkpt lat="26.028087006884526" lon="119.1931603053086">
        <ele>150.23002925058532</ele>
        <time>1970-01-21T15:15:15.773Z</time>
      </trkpt>
      <trkpt lat="26.02806200920484" lon="119.19313430772425">
        <ele>150.23002925058532</ele>
        <time>1970-01-21T15:15:15.779Z</time>
      </trkpt>
      <trkpt lat="26.028038011434155" lon="119.19310931004651">
        <ele>150.23002925058532</ele>
        <time>1970-01-21T15:15:15.785Z</time>
      </trkpt>
      <trkpt lat="26.02801801392996" lon="119.1930813126455">
        <ele>150.23002925058532</ele>
        <time>1970-01-21T15:15:15.791Z</time>
      </trkpt>
      <trkpt lat="26.028000016602764" lon="119.19305131542738">
        <ele>150.23002925058532</ele>
        <time>1970-01-21T15:15:15.797Z</time>
      </trkpt>
      <trkpt lat="26.027984019451317" lon="119.19301931839341">
        <ele>150.23002925058532</ele>
        <time>1970-01-21T15:15:15.803Z</time>
      </trkpt>
      <trkpt lat="26.02797202256402" lon="119.19298432163484">
        <ele>150.23002925058532</ele>
        <time>1970-01-21T15:15:15.811Z</time>
      </trkpt>
      <trkpt lat="26.027961025673108" lon="119.19294932487092">
        <ele>150.23002925058532</ele>
        <time>1970-01-21T15:15:15.815Z</time>
      </trkpt>
      <trkpt lat="26.027953028690447" lon="119.19291532801121">
        <ele>150.23002925058532</ele>
        <time>1970-01-21T15:15:15.819Z</time>
      </trkpt>
      <trkpt lat="26.027947031881496" lon="119.19287933133303">
        <ele>150.23002925058532</ele>
        <time>1970-01-21T15:15:15.825Z</time>
      </trkpt>
      <trkpt lat="26.027945035246134" lon="119.19284133483703">
        <ele>150.23002925058532</ele>
        <time>1970-01-21T15:15:15.831Z</time>
      </trkpt>
      <trkpt lat="26.02794603869515" lon="119.19280233842733">
        <ele>150.23002925058532</ele>
        <time>1970-01-21T15:15:15.837Z</time>
      </trkpt>
      <trkpt lat="26.027953041963976" lon="119.19276534182949">
        <ele>150.23002925058532</ele>
        <time>1970-01-21T15:15:15.843Z</time>
      </trkpt>
      <trkpt lat="26.0279640450531" lon="119.1927303450456">
        <ele>150.23002925058532</ele>
        <time>1970-01-21T15:15:15.849Z</time>
      </trkpt>
      <trkpt lat="26.027979048403303" lon="119.19269234853242">
        <ele>150.23002925058532</ele>
        <time>1970-01-21T15:15:15.855Z</time>
      </trkpt>
      <trkpt lat="26.027997051661117" lon="119.1926553519236">
        <ele>150.23002925058532</ele>
        <time>1970-01-21T15:15:15.861Z</time>
      </trkpt>
      <trkpt lat="26.028015054739825" lon="119.19262035512693">
        <ele>150.23002925058532</ele>
        <time>1970-01-21T15:15:15.867Z</time>
      </trkpt>
      <trkpt lat="26.028034057551807" lon="119.192588358053">
        <ele>150.23002925058532</ele>
        <time>1970-01-21T15:15:15.873Z</time>
      </trkpt>
      <trkpt lat="26.028055060096555" lon="119.19255936070257">
        <ele>150.23002925058532</ele>
        <time>1970-01-21T15:15:15.879Z</time>
      </trkpt>
      <trkpt lat="26.028080062202037" lon="119.19253536289567">
        <ele>150.23002925058532</ele>
        <time>1970-01-21T15:15:15.885Z</time>
      </trkpt>
      <trkpt lat="26.028108064131672" lon="119.19251336490602">
        <ele>150.23002925058532</ele>
        <time>1970-01-21T15:15:15.891Z</time>
      </trkpt>
      <trkpt lat="26.0281360657983" lon="119.1924943666414">
        <ele>150.23002925058532</ele>
        <time>1970-01-21T15:15:15.897Z</time>
      </trkpt>
      <trkpt lat="26.028163067376145" lon="119.19247636828422">
        <ele>150.23002925058532</ele>
        <time>1970-01-21T15:15:15.903Z</time>
      </trkpt>
      <trkpt lat="26.028193068778386" lon="119.19246036974543">
        <ele>150.23002925058532</ele>
        <time>1970-01-21T15:15:15.909Z</time>
      </trkpt>
      <trkpt lat="26.0282280697457" lon="119.19244937075379">
        <ele>150.23002925058532</ele>
        <time>1970-01-21T15:15:15.915Z</time>
      </trkpt>
      <trkpt lat="26.028264070451613" lon="119.19244137148914">
        <ele>150.23002925058532</ele>
        <time>1970-01-21T15:15:15.921Z</time>
      </trkpt>
      <trkpt lat="26.02830007063345" lon="119.19243937168041">
        <ele>150.23002925058532</ele>
        <time>1970-01-21T15:15:15.927Z</time>
      </trkpt>
      <trkpt lat="26.028334070552646" lon="119.19244037159892">
        <ele>150.23002925058532</ele>
        <time>1970-01-21T15:15:15.933Z</time>
      </trkpt>
      <trkpt lat="26.028368070471632" lon="119.19244137151739">
        <ele>150.23002925058532</ele>
        <time>1970-01-21T15:15:15.939Z</time>
      </trkpt>
      <trkpt lat="26.02840107038997" lon="119.19244237143565">
        <ele>150.23002925058532</ele>
        <time>1970-01-21T15:15:15.945Z</time>
      </trkpt>
      <trkpt lat="26.028434070310258" lon="119.19244337135383">
        <ele>150.23002925058532</ele>
        <time>1970-01-21T15:15:15.951Z</time>
      </trkpt>
      <trkpt lat="26.028467070317593" lon="119.19244337136274">
        <ele>150.23002925058532</ele>
        <time>1970-01-21T15:15:15.957Z</time>
      </trkpt>
      <trkpt lat="26.02849907032433" lon="119.1924433713714">
        <ele>150.23002925058532</ele>
        <time>1970-01-21T15:15:15.963Z</time>
      </trkpt>
      <trkpt lat="26.02852907059173" lon="119.19244037165157">
        <ele>150.23002925058532</ele>
        <time>1970-01-21T15:15:15.969Z</time>
      </trkpt>
      <trkpt lat="26.028560070510537" lon="119.19244137156925">
        <ele>150.23002925058532</ele>
        <time>1970-01-21T15:15:15.977Z</time>
      </trkpt>
      <trkpt lat="26.028590069905093" lon="119.19244837094249">
        <ele>150.23002925058532</ele>
        <time>1970-01-21T15:15:15.983Z</time>
      </trkpt>
      <trkpt lat="26.028625069040174" lon="119.19245837004438">
        <ele>150.23002925058532</ele>
        <time>1970-01-21T15:15:15.991Z</time>
      </trkpt>
      <trkpt lat="26.02865806843546" lon="119.19246536941765">
        <ele>150.23002925058532</ele>
        <time>1970-01-21T15:15:15.995Z</time>
      </trkpt>
      <trkpt lat="26.02869106826833" lon="119.19246736924494">
        <ele>150.23002925058532</ele>
        <time>1970-01-21T15:15:16.001Z</time>
      </trkpt>
      <trkpt lat="26.028723068273848" lon="119.1924673692536">
        <ele>150.23002925058532</ele>
        <time>1970-01-21T15:15:16.007Z</time>
      </trkpt>
      <trkpt lat="26.028756068367244" lon="119.19246636935337">
        <ele>150.23002925058532</ele>
        <time>1970-01-21T15:15:16.015Z</time>
      </trkpt>
      <trkpt lat="26.02878906854808" lon="119.19246436954391">
        <ele>150.23002925058532</ele>
        <time>1970-01-21T15:15:16.021Z</time>
      </trkpt>
      <trkpt lat="26.028823068641397" lon="119.19246336964392">
        <ele>150.23002925058532</ele>
        <time>1970-01-21T15:15:16.027Z</time>
      </trkpt>
      <trkpt lat="26.02885606882174" lon="119.19246136983455">
        <ele>150.23002925058532</ele>
        <time>1970-01-21T15:15:16.033Z</time>
      </trkpt>
      <trkpt lat="26.02888906874126" lon="119.19246236975262">
        <ele>150.23002925058532</ele>
        <time>1970-01-21T15:15:16.039Z</time>
      </trkpt>
      <trkpt lat="26.028921068399438" lon="119.19246636939822">
        <ele>150.23002925058532</ele>
        <time>1970-01-21T15:15:16.045Z</time>
      </trkpt>
      <trkpt lat="26.028956067794812" lon="119.19247336877191">
        <ele>150.23002925058532</ele>
        <time>1970-01-21T15:15:16.049Z</time>
      </trkpt>
      <trkpt lat="26.028989067539992" lon="119.19247636850832">
        <ele>150.23002925058532</ele>
        <time>1970-01-21T15:15:16.053Z</time>
      </trkpt>
      <trkpt lat="26.029021067633877" lon="119.19247536860784">
        <ele>150.23002925058532</ele>
        <time>1970-01-21T15:15:16.057Z</time>
      </trkpt>
      <trkpt lat="26.029053067815383" lon="119.19247336879822">
        <ele>150.23002925058532</ele>
        <time>1970-01-21T15:15:16.061Z</time>
      </trkpt>
      <trkpt lat="26.029085067559713" lon="119.19247636853443">
        <ele>150.23002925058532</ele>
        <time>1970-01-21T15:15:16.065Z</time>
      </trkpt>
      <trkpt lat="26.02911606695371" lon="119.19248336790696">
        <ele>150.23002925058532</ele>
        <time>1970-01-21T15:15:16.069Z</time>
      </trkpt>
      <trkpt lat="26.029146066174324" lon="119.19249236709689">
        <ele>150.23002925058532</ele>
        <time>1970-01-21T15:15:16.073Z</time>
      </trkpt>
      <trkpt lat="26.029174065218122" lon="119.19250336610381">
        <ele>150.23002925058532</ele>
        <time>1970-01-21T15:15:16.077Z</time>
      </trkpt>
      <trkpt lat="26.029199063999272" lon="119.19251736483646">
        <ele>150.23002925058532</ele>
        <time>1970-01-21T15:15:16.081Z</time>
      </trkpt>
      <trkpt lat="26.029222062604667" lon="119.1925333633866">
        <ele>150.23002925058532</ele>
        <time>1970-01-21T15:15:16.085Z</time>
      </trkpt>
      <trkpt lat="26.029247061210008" lon="119.19254936193659">
        <ele>150.23002925058532</ele>
        <time>1970-01-21T15:15:16.089Z</time>
      </trkpt>
      <trkpt lat="26.02927305972545" lon="119.19256636039445">
        <ele>150.23002925058532</ele>
        <time>1970-01-21T15:15:16.093Z</time>
      </trkpt>
      <trkpt lat="26.02929805789044" lon="119.19258735848628">
        <ele>150.23002925058532</ele>
        <time>1970-01-21T15:15:16.097Z</time>
      </trkpt>
      <trkpt lat="26.02932205614137" lon="119.19260735666707">
        <ele>150.23002925058532</ele>
        <time>1970-01-21T15:15:16.101Z</time>
      </trkpt>
      <trkpt lat="26.029343054038073" lon="119.19263135448111">
        <ele>150.23002925058532</ele>
        <time>1970-01-21T15:15:16.107Z</time>
      </trkpt>
      <trkpt lat="26.029363051492922" lon="119.19266035183352">
        <ele>150.23002925058532</ele>
        <time>1970-01-21T15:15:16.113Z</time>
      </trkpt>
      <trkpt lat="26.02937904815251" lon="119.19269834835742">
        <ele>150.23002925058532</ele>
        <time>1970-01-21T15:15:16.119Z</time>
      </trkpt>
      <trkpt lat="26.029392044983425" lon="119.19273434506073">
        <ele>150.23002925058532</ele>
        <time>1970-01-21T15:15:16.123Z</time>
      </trkpt>
      <trkpt lat="26.029400041897457" lon="119.19276934184848">
        <ele>150.23002925058532</ele>
        <time>1970-01-21T15:15:16.127Z</time>
      </trkpt>
      <trkpt lat="26.029401038718042" lon="119.19280533853926">
        <ele>150.23002925058532</ele>
        <time>1970-01-21T15:15:16.131Z</time>
      </trkpt>
      <trkpt lat="26.029398035533532" lon="119.19284133522459">
        <ele>150.23002925058532</ele>
        <time>1970-01-21T15:15:16.135Z</time>
      </trkpt>
      <trkpt lat="26.029391032432752" lon="119.19287633199535">
        <ele>150.23002925058532</ele>
        <time>1970-01-21T15:15:16.139Z</time>
      </trkpt>
      <trkpt lat="26.029385029328225" lon="119.19291132876238">
        <ele>150.23002925058532</ele>
        <time>1970-01-21T15:15:16.143Z</time>
      </trkpt>
      <trkpt lat="26.029385025954678" lon="119.19294932525003">
        <ele>150.23002925058532</ele>
        <time>1970-01-21T15:15:16.147Z</time>
      </trkpt>
      <trkpt lat="26.029385022487595" lon="119.19298832164033">
        <ele>150.23002925058532</ele>
        <time>1970-01-21T15:15:16.151Z</time>
      </trkpt>
      <trkpt lat="26.02937901901449" lon="119.19302731802199">
        <ele>150.23002925058532</ele>
        <time>1970-01-21T15:15:16.155Z</time>
      </trkpt>
      <trkpt lat="26.02936801553567" lon="119.19306631439676">
        <ele>150.23002925058532</ele>
        <time>1970-01-21T15:15:16.159Z</time>
      </trkpt>
      <trkpt lat="26.029360011963018" lon="119.19310631067563">
        <ele>150.23002925058532</ele>
        <time>1970-01-21T15:15:16.163Z</time>
      </trkpt>
      <trkpt lat="26.029357008207516" lon="119.193148306762">
        <ele>150.23002925058532</ele>
        <time>1970-01-21T15:15:16.167Z</time>
      </trkpt>
      <trkpt lat="26.029356004357258" lon="119.19319130275146">
        <ele>150.23002925058532</ele>
        <time>1970-01-21T15:15:16.171Z</time>
      </trkpt>
      <trkpt lat="26.029363001041414" lon="119.19322829929612">
        <ele>150.23002925058532</ele>
        <time>1970-01-21T15:15:16.175Z</time>
      </trkpt>
      <trkpt lat="26.02938299889178" lon="119.19325229705552">
        <ele>150.23002925058532</ele>
        <time>1970-01-21T15:15:16.179Z</time>
      </trkpt>
      <trkpt lat="26.029416998089733" lon="119.19326129622259">
        <ele>150.23002925058532</ele>
        <time>1970-01-21T15:15:16.183Z</time>
      </trkpt>
      <trkpt lat="26.029454998007022" lon="119.19326229613917">
        <ele>150.23002925058532</ele>
        <time>1970-01-21T15:15:16.187Z</time>
      </trkpt>
      <trkpt lat="26.029492997564063" lon="119.19326729568141">
        <ele>150.23002925058532</ele>
        <time>1970-01-21T15:15:16.193Z</time>
      </trkpt>
      <trkpt lat="26.02953099721263" lon="119.19327129531722">
        <ele>150.23002925058532</ele>
        <time>1970-01-21T15:15:16.197Z</time>
      </trkpt>
      <trkpt lat="26.029566997848963" lon="119.19326429598243">
        <ele>150.23002925058532</ele>
        <time>1970-01-21T15:15:16.201Z</time>
      </trkpt>
      <trkpt lat="26.0296029991147" lon="119.19325029730285">
        <ele>150.23002925058532</ele>
        <time>1970-01-21T15:15:16.205Z</time>
      </trkpt>
      <trkpt lat="26.029639000559563" lon="119.19323429880909">
        <ele>150.23002925058532</ele>
        <time>1970-01-21T15:15:16.209Z</time>
      </trkpt>
      <trkpt lat="26.029676001196872" lon="119.1932272994736">
        <ele>150.23002925058532</ele>
        <time>1970-01-21T15:15:16.213Z</time>
      </trkpt>
      <trkpt lat="26.029711001652167" lon="119.19322229995039">
        <ele>150.23002925058532</ele>
        <time>1970-01-21T15:15:16.217Z</time>
      </trkpt>
      <trkpt lat="26.029745002555984" lon="119.19321230089379">
        <ele>150.23002925058532</ele>
        <time>1970-01-21T15:15:16.221Z</time>
      </trkpt>
      <trkpt lat="26.029773004086145" lon="119.19319530248885">
        <ele>150.23002925058532</ele>
        <time>1970-01-21T15:15:16.225Z</time>
      </trkpt>
      <trkpt lat="26.029800006690373" lon="119.19316630520291">
        <ele>150.23002925058532</ele>
        <time>1970-01-21T15:15:16.229Z</time>
      </trkpt>
      <trkpt lat="26.0298170100936" lon="119.19312830874927">
        <ele>150.23002925058532</ele>
        <time>1970-01-21T15:15:16.233Z</time>
      </trkpt>
      <trkpt lat="26.02982601375856" lon="119.19308731256788">
        <ele>150.23002925058532</ele>
        <time>1970-01-21T15:15:16.239Z</time>
      </trkpt>
      <trkpt lat="26.029825017326853" lon="119.1930473162854">
        <ele>150.23002925058532</ele>
        <time>1970-01-21T15:15:16.245Z</time>
      </trkpt>
      <trkpt lat="26.029828020267775" lon="119.19301431934808">
        <ele>150.23002925058532</ele>
        <time>1970-01-21T15:15:16.253Z</time>
      </trkpt>
      <trkpt lat="26.029844022940747" lon="119.1929843221332">
        <ele>150.23002925058532</ele>
        <time>1970-01-21T15:15:16.257Z</time>
      </trkpt>
      <trkpt lat="26.029876025348127" lon="119.19295732464072">
        <ele>150.23002925058532</ele>
        <time>1970-01-21T15:15:16.265Z</time>
      </trkpt>
      <trkpt lat="26.029916027221635" lon="119.19293632659343">
        <ele>150.23002925058532</ele>
        <time>1970-01-21T15:15:16.269Z</time>
      </trkpt>
      <trkpt lat="26.029960027940483" lon="119.19292832734475">
        <ele>150.23002925058532</ele>
        <time>1970-01-21T15:15:16.273Z</time>
      </trkpt>
      <trkpt lat="26.030010026884153" lon="119.19294032624903">
        <ele>150.23002925058532</ele>
        <time>1970-01-21T15:15:16.277Z</time>
      </trkpt>
      <trkpt lat="26.03005602494026" lon="119.19296232422491">
        <ele>150.23002925058532</ele>
        <time>1970-01-21T15:15:16.279Z</time>
      </trkpt>
      <trkpt lat="26.03009702254996" lon="119.19298932173662">
        <ele>150.23002925058532</ele>
        <time>1970-01-21T15:15:16.281Z</time>
      </trkpt>
      <trkpt lat="26.030127020152634" lon="119.19301631924095">
        <ele>150.23002925058532</ele>
        <time>1970-01-21T15:15:16.283Z</time>
      </trkpt>
      <trkpt lat="26.030182016331366" lon="119.19305931526284">
        <ele>150.23002925058532</ele>
        <time>1970-01-21T15:15:16.296Z</time>
      </trkpt>
      <trkpt lat="26.030182016331366" lon="119.19305931526284">
        <ele>150.16208723562323</ele>
        <time>2026-07-01T14:12:47.596Z</time>
      </trkpt>
      <trkpt lat="26.030182016331366" lon="119.19305931526284">
        <ele>150.07443990279873</ele>
        <time>2026-07-01T14:12:52.598Z</time>
      </trkpt>
      <trkpt lat="26.030182016331366" lon="119.19305931526284">
        <ele>150.3865393962683</ele>
        <time>2026-07-01T14:12:57.602Z</time>
      </trkpt>
      <trkpt lat="26.030182016331366" lon="119.19305931526284">
        <ele>150.28489240333158</ele>
        <time>2026-07-01T14:13:02.594Z</time>
      </trkpt>
      <trkpt lat="26.030182016331366" lon="119.19305931526284">
        <ele>150.3609851346676</ele>
        <time>2026-07-01T14:13:07.595Z</time>
      </trkpt>
      <trkpt lat="26.030182016331366" lon="119.19305931526284">
        <ele>150.45709878273695</ele>
        <time>2026-07-01T14:13:12.594Z</time>
      </trkpt>
      <trkpt lat="26.030182016331366" lon="119.19305931526284">
        <ele>150.40037453229382</ele>
        <time>2026-07-01T14:13:17.595Z</time>
      </trkpt>
      <trkpt lat="26.030182016331366" lon="119.19305931526284">
        <ele>150.38442343591012</ele>
        <time>2026-07-01T14:13:22.595Z</time>
      </trkpt>
      <trkpt lat="26.030182016331366" lon="119.19305931526284">
        <ele>150.3893878051164</ele>
        <time>2026-07-01T14:13:27.595Z</time>
      </trkpt>
      <trkpt lat="26.030182016331366" lon="119.19305931526284">
        <ele>150.36635640736424</ele>
        <time>2026-07-01T14:13:32.597Z</time>
      </trkpt>
      <trkpt lat="26.030182016331366" lon="119.19305931526284">
        <ele>150.43610182177127</ele>
        <time>2026-07-01T14:13:37.595Z</time>
      </trkpt>
      <trkpt lat="26.030182016331366" lon="119.19305931526284">
        <ele>150.26902286653598</ele>
        <time>2026-07-01T14:13:42.601Z</time>
      </trkpt>
      <trkpt lat="26.030182016331366" lon="119.19305931526284">
        <ele>150.34666175439847</ele>
        <time>2026-07-01T14:13:47.594Z</time>
      </trkpt>
      <trkpt lat="26.030182016331366" lon="119.19305931526284">
        <ele>150.26593034424533</ele>
        <time>2026-07-01T14:13:52.595Z</time>
      </trkpt>
      <trkpt lat="26.030182016331366" lon="119.19305931526284">
        <ele>149.30200348075013</ele>
        <time>2026-07-01T14:13:57.595Z</time>
      </trkpt>
      <trkpt lat="26.030182016331366" lon="119.19305931526284">
        <ele>151.28154790832824</ele>
        <time>2026-07-01T14:14:02.596Z</time>
      </trkpt>
      <trkpt lat="26.030182016331366" lon="119.19305931526284">
        <ele>148.06973968170198</ele>
        <time>2026-07-01T14:14:07.595Z</time>
      </trkpt>
      <trkpt lat="26.030182016331366" lon="119.19305931526284">
        <ele>151.73587746721893</ele>
        <time>2026-07-01T14:14:12.594Z</time>
      </trkpt>
      <trkpt lat="26.030182016331366" lon="119.19305931526284">
        <ele>150.67537203147714</ele>
        <time>2026-07-01T14:14:17.594Z</time>
      </trkpt>
      <trkpt lat="26.030182016331366" lon="119.19305931526284">
        <ele>150.0800551693475</ele>
        <time>2026-07-01T14:14:22.594Z</time>
      </trkpt>
      <trkpt lat="26.030182016331366" lon="119.19305931526284">
        <ele>149.8777447284551</ele>
        <time>2026-07-01T14:14:27.595Z</time>
      </trkpt>
      <trkpt lat="26.030182016331366" lon="119.19305931526284">
        <ele>149.8432400427265</ele>
        <time>2026-07-01T14:14:32.596Z</time>
      </trkpt>
      <trkpt lat="26.030182016331366" lon="119.19305931526284">
        <ele>149.79522663780725</ele>
        <time>2026-07-01T14:14:37.595Z</time>
      </trkpt>
      <trkpt lat="26.030182016331366" lon="119.19305931526284">
        <ele>149.68740073254736</ele>
        <time>2026-07-01T14:14:42.596Z</time>
      </trkpt>
      <trkpt lat="26.030182016331366" lon="119.19305931526284">
        <ele>149.63141308150705</ele>
        <time>2026-07-01T14:14:47.594Z</time>
      </trkpt>
      <trkpt lat="26.030182016331366" lon="119.19305931526284">
        <ele>149.76967383147507</ele>
        <time>2026-07-01T14:14:52.595Z</time>
      </trkpt>
      <trkpt lat="26.030182016331366" lon="119.19305931526284">
        <ele>149.6222988413067</ele>
        <time>2026-07-01T14:14:57.594Z</time>
      </trkpt>
      <trkpt lat="26.030182016331366" lon="119.19305931526284">
        <ele>149.66168543673058</ele>
        <time>2026-07-01T14:15:02.595Z</time>
      </trkpt>
      <trkpt lat="26.030182016331366" lon="119.19305931526284">
        <ele>149.75290992262703</ele>
        <time>2026-07-01T14:15:07.594Z</time>
      </trkpt>
      <trkpt lat="26.030182016331366" lon="119.19305931526284">
        <ele>149.58616746780626</ele>
        <time>2026-07-01T14:15:12.595Z</time>
      </trkpt>
      <trkpt lat="26.030182016331366" lon="119.19305931526284">
        <ele>149.65525662273282</ele>
        <time>2026-07-01T14:15:17.595Z</time>
      </trkpt>
      <trkpt lat="26.030182016331366" lon="119.19305931526284">
        <ele>149.63572607296183</ele>
        <time>2026-07-01T14:15:22.594Z</time>
      </trkpt>
      <trkpt lat="26.030182016331366" lon="119.19305931526284">
        <ele>149.75364232584798</ele>
        <time>2026-07-01T14:15:27.594Z</time>
      </trkpt>
      <trkpt lat="26.030182016331366" lon="119.19305931526284">
        <ele>149.78521709152972</ele>
        <time>2026-07-01T14:15:32.594Z</time>
      </trkpt>
      <trkpt lat="26.030182016331366" lon="119.19305931526284">
        <ele>149.7533168132966</ele>
        <time>2026-07-01T14:15:37.596Z</time>
      </trkpt>
      <trkpt lat="26.030182016331366" lon="119.19305931526284">
        <ele>149.72987993664125</ele>
        <time>2026-07-01T14:15:42.595Z</time>
      </trkpt>
      <trkpt lat="26.030182016331366" lon="119.19305931526284">
        <ele>149.81540851655652</ele>
        <time>2026-07-01T14:15:47.594Z</time>
      </trkpt>
      <trkpt lat="26.030182016331366" lon="119.19305931526284">
        <ele>149.82313948856296</ele>
        <time>2026-07-01T14:15:52.595Z</time>
      </trkpt>
      <trkpt lat="26.030182016331366" lon="119.19305931526284">
        <ele>149.83770628304055</ele>
        <time>2026-07-01T14:15:57.594Z</time>
      </trkpt>
      <trkpt lat="26.030182016331366" lon="119.19305931526284">
        <ele>149.80377138006926</ele>
        <time>2026-07-01T14:16:02.595Z</time>
      </trkpt>
      <trkpt lat="26.030182016331366" lon="119.19305931526284">
        <ele>149.76503527146582</ele>
        <time>2026-07-01T14:16:07.595Z</time>
      </trkpt>
      <trkpt lat="26.030182016331366" lon="119.19305931526284">
        <ele>149.74347006353884</ele>
        <time>2026-07-01T14:16:12.595Z</time>
      </trkpt>
      <trkpt lat="26.030182016331366" lon="119.19305931526284">
        <ele>149.7997838328046</ele>
        <time>2026-07-01T14:16:17.595Z</time>
      </trkpt>
      <trkpt lat="26.030182016331366" lon="119.19305931526284">
        <ele>149.74607416174013</ele>
        <time>2026-07-01T14:16:22.594Z</time>
      </trkpt>
      <trkpt lat="26.030182016331366" lon="119.19305931526284">
        <ele>149.85015724648045</ele>
        <time>2026-07-01T14:16:27.594Z</time>
      </trkpt>
      <trkpt lat="26.030182016331366" lon="119.19305931526284">
        <ele>149.88262747626268</ele>
        <time>2026-07-01T14:16:32.595Z</time>
      </trkpt>
      <trkpt lat="26.030182016331366" lon="119.19305931526284">
        <ele>149.94691720321617</ele>
        <time>2026-07-01T14:16:37.599Z</time>
      </trkpt>
      <trkpt lat="26.030182016331366" lon="119.19305931526284">
        <ele>149.6935854334422</ele>
        <time>2026-07-01T14:16:42.595Z</time>
      </trkpt>
      <trkpt lat="26.030182016331366" lon="119.19305931526284">
        <ele>149.88384816357754</ele>
        <time>2026-07-01T14:16:47.594Z</time>
      </trkpt>
      <trkpt lat="26.030182016331366" lon="119.19305931526284">
        <ele>149.91965505520213</ele>
        <time>2026-07-01T14:16:52.594Z</time>
      </trkpt>
      <trkpt lat="26.030182016331366" lon="119.19305931526284">
        <ele>149.89434608037263</ele>
        <time>2026-07-01T14:16:57.595Z</time>
      </trkpt>
      <trkpt lat="26.030182016331366" lon="119.19305931526284">
        <ele>149.89849642249848</ele>
        <time>2026-07-01T14:17:02.595Z</time>
      </trkpt>
      <trkpt lat="26.030182016331366" lon="119.19305931526284">
        <ele>149.88734746799636</ele>
        <time>2026-07-01T14:17:07.596Z</time>
      </trkpt>
      <trkpt lat="26.030182016331366" lon="119.19305931526284">
        <ele>149.9550551717217</ele>
        <time>2026-07-01T14:17:12.594Z</time>
      </trkpt>
      <trkpt lat="26.030182016331366" lon="119.19305931526284">
        <ele>149.95139308510505</ele>
        <time>2026-07-01T14:17:17.595Z</time>
      </trkpt>
      <trkpt lat="26.030182016331366" lon="119.19305931526284">
        <ele>150.1195248822437</ele>
        <time>2026-07-01T14:17:22.594Z</time>
      </trkpt>
      <trkpt lat="26.030182016331366" lon="119.19305931526284">
        <ele>149.86667717526177</ele>
        <time>2026-07-01T14:17:27.595Z</time>
      </trkpt>
      <trkpt lat="26.030182016331366" lon="119.19305931526284">
        <ele>150.06858049746114</ele>
        <time>2026-07-01T14:17:32.599Z</time>
      </trkpt>
      <trkpt lat="26.030182016331366" lon="119.19305931526284">
        <ele>150.0281344146986</ele>
        <time>2026-07-01T14:17:37.594Z</time>
      </trkpt>
      <trkpt lat="26.030182016331366" lon="119.19305931526284">
        <ele>149.99240852897998</ele>
        <time>2026-07-01T14:17:42.597Z</time>
      </trkpt>
      <trkpt lat="26.030182016331366" lon="119.19305931526284">
        <ele>149.95831036090655</ele>
        <time>2026-07-01T14:17:47.595Z</time>
      </trkpt>
      <trkpt lat="26.030182016331366" lon="119.19305931526284">
        <ele>149.95814760142687</ele>
        <time>2026-07-01T14:17:52.594Z</time>
      </trkpt>
      <trkpt lat="26.030182016331366" lon="119.19305931526284">
        <ele>149.9710869883311</ele>
        <time>2026-07-01T14:17:57.595Z</time>
      </trkpt>
      <trkpt lat="26.030182016331366" lon="119.19305931526284">
        <ele>149.99875617167584</ele>
        <time>2026-07-01T14:18:02.596Z</time>
      </trkpt>
      <trkpt lat="26.030182016331366" lon="119.19305931526284">
        <ele>149.91786470768812</ele>
        <time>2026-07-01T14:18:07.594Z</time>
      </trkpt>
      <trkpt lat="26.030182016331366" lon="119.19305931526284">
        <ele>149.94235994364226</ele>
        <time>2026-07-01T14:18:12.616Z</time>
      </trkpt>
      <trkpt lat="26.030182016331366" lon="119.19305931526284">
        <ele>150.01674118039338</ele>
        <time>2026-07-01T14:18:17.594Z</time>
      </trkpt>
      <trkpt lat="26.030182016331366" lon="119.19305931526284">
        <ele>150.02626266820857</ele>
        <time>2026-07-01T14:18:22.595Z</time>
      </trkpt>
      <trkpt lat="26.030182016331366" lon="119.19305931526284">
        <ele>150.05450166204395</ele>
        <time>2026-07-01T14:18:27.594Z</time>
      </trkpt>
      <trkpt lat="26.030182016331366" lon="119.19305931526284">
        <ele>150.19594192809592</ele>
        <time>2026-07-01T14:18:32.595Z</time>
      </trkpt>
      <trkpt lat="26.030182016331366" lon="119.19305931526284">
        <ele>149.87017647389277</ele>
        <time>2026-07-01T14:18:37.595Z</time>
      </trkpt>
      <trkpt lat="26.030182016331366" lon="119.19305931526284">
        <ele>150.09454094345938</ele>
        <time>2026-07-01T14:18:42.596Z</time>
      </trkpt>
      <trkpt lat="26.030182016331366" lon="119.19305931526284">
        <ele>150.22816909367552</ele>
        <time>2026-07-01T14:18:47.594Z</time>
      </trkpt>
      <trkpt lat="26.030182016331366" lon="119.19305931526284">
        <ele>149.87147853879918</ele>
        <time>2026-07-01T14:18:52.594Z</time>
      </trkpt>
      <trkpt lat="26.030182016331366" lon="119.19305931526284">
        <ele>149.96823869423545</ele>
        <time>2026-07-01T14:18:57.595Z</time>
      </trkpt>
      <trkpt lat="26.030182016331366" lon="119.19305931526284">
        <ele>149.4559653629473</ele>
        <time>2026-07-01T14:19:02.595Z</time>
      </trkpt>
      <trkpt lat="26.030182016331366" lon="119.19305931526284">
        <ele>150.59268483211213</ele>
        <time>2026-07-01T14:19:07.594Z</time>
      </trkpt>
      <trkpt lat="26.030182016331366" lon="119.19305931526284">
        <ele>150.3272112866915</ele>
        <time>2026-07-01T14:19:12.594Z</time>
      </trkpt>
      <trkpt lat="26.030182016331366" lon="119.19305931526284">
        <ele>150.21295069746355</ele>
        <time>2026-07-01T14:19:17.595Z</time>
      </trkpt>
      <trkpt lat="26.030182016331366" lon="119.19305931526284">
        <ele>150.14646203017483</ele>
        <time>2026-07-01T14:19:22.595Z</time>
      </trkpt>
      <trkpt lat="26.030182016331366" lon="119.19305931526284">
        <ele>150.15834369467714</ele>
        <time>2026-07-01T14:19:27.594Z</time>
      </trkpt>
      <trkpt lat="26.030182016331366" lon="119.19305931526284">
        <ele>150.13620800187968</ele>
        <time>2026-07-01T14:19:32.594Z</time>
      </trkpt>
      <trkpt lat="26.030182016331366" lon="119.19305931526284">
        <ele>150.10861983316696</ele>
        <time>2026-07-01T14:19:37.594Z</time>
      </trkpt>
      <trkpt lat="26.030182016331366" lon="119.19305931526284">
        <ele>150.23760939344055</ele>
        <time>2026-07-01T14:19:42.594Z</time>
      </trkpt>
      <trkpt lat="26.030182016331366" lon="119.19305931526284">
        <ele>150.27797490995025</ele>
        <time>2026-07-01T14:19:47.595Z</time>
      </trkpt>
      <trkpt lat="26.030182016331366" lon="119.19305931526284">
        <ele>150.39565430733938</ele>
        <time>2026-07-01T14:19:52.596Z</time>
      </trkpt>
      <trkpt lat="26.030182016331366" lon="119.19305931526284">
        <ele>150.42397568923366</ele>
        <time>2026-07-01T14:19:57.601Z</time>
      </trkpt>
      <trkpt lat="26.030182016331366" lon="119.19305931526284">
        <ele>150.16688873577002</ele>
        <time>2026-07-01T14:20:02.598Z</time>
      </trkpt>
      <trkpt lat="26.030182016331366" lon="119.19305931526284">
        <ele>150.05466442303947</ele>
        <time>2026-07-01T14:20:07.594Z</time>
      </trkpt>
      <trkpt lat="26.030182016331366" lon="119.19305931526284">
        <ele>150.06166314819464</ele>
        <time>2026-07-01T14:20:12.594Z</time>
      </trkpt>
      <trkpt lat="26.030182016331366" lon="119.19305931526284">
        <ele>150.014950816136</ele>
        <time>2026-07-01T14:20:17.595Z</time>
      </trkpt>
      <trkpt lat="26.030182016331366" lon="119.19305931526284">
        <ele>150.07696270333554</ele>
        <time>2026-07-01T14:20:22.595Z</time>
      </trkpt>
      <trkpt lat="26.030182016331366" lon="119.19305931526284">
        <ele>149.7174291174392</ele>
        <time>2026-07-01T14:20:27.594Z</time>
      </trkpt>
      <trkpt lat="26.030182016331366" lon="119.19305931526284">
        <ele>149.93357094867557</ele>
        <time>2026-07-01T14:20:32.595Z</time>
      </trkpt>
      <trkpt lat="26.030182016331366" lon="119.19305931526284">
        <ele>149.87164129692542</ele>
        <time>2026-07-01T14:20:37.595Z</time>
      </trkpt>
      <trkpt lat="26.030182016331366" lon="119.19305931526284">
        <ele>149.8198029630937</ele>
        <time>2026-07-01T14:20:42.595Z</time>
      </trkpt>
      <trkpt lat="26.030182016331366" lon="119.19305931526284">
        <ele>149.9304785262938</ele>
        <time>2026-07-01T14:20:47.595Z</time>
      </trkpt>
      <trkpt lat="26.030182016331366" lon="119.19305931526284">
        <ele>149.9383723431503</ele>
        <time>2026-07-01T14:20:52.594Z</time>
      </trkpt>
      <trkpt lat="26.030182016331366" lon="119.19305931526284">
        <ele>149.95822898116424</ele>
        <time>2026-07-01T14:20:57.594Z</time>
      </trkpt>
      <trkpt lat="26.030182016331366" lon="119.19305931526284">
        <ele>149.83070770884126</ele>
        <time>2026-07-01T14:21:02.595Z</time>
      </trkpt>
      <trkpt lat="26.030182016331366" lon="119.19305931526284">
        <ele>149.87937231080497</ele>
        <time>2026-07-01T14:21:07.595Z</time>
      </trkpt>
      <trkpt lat="26.030182016331366" lon="119.19305931526284">
        <ele>149.83843869224123</ele>
        <time>2026-07-01T14:21:12.595Z</time>
      </trkpt>
      <trkpt lat="26.030182016331366" lon="119.19305931526284">
        <ele>149.65037398184248</ele>
        <time>2026-07-01T14:21:17.595Z</time>
      </trkpt>
      <trkpt lat="26.030182016331366" lon="119.19305931526284">
        <ele>149.96701799699858</ele>
        <time>2026-07-01T14:21:22.595Z</time>
      </trkpt>
      <trkpt lat="26.030182016331366" lon="119.19305931526284">
        <ele>149.85691169694118</ele>
        <time>2026-07-01T14:21:27.594Z</time>
      </trkpt>
      <trkpt lat="26.030182016331366" lon="119.19305931526284">
        <ele>149.93251301459978</ele>
        <time>2026-07-01T14:21:32.595Z</time>
      </trkpt>
      <trkpt lat="26.030182016331366" lon="119.19305931526284">
        <ele>150.0036389763921</ele>
        <time>2026-07-01T14:21:37.596Z</time>
      </trkpt>
      <trkpt lat="26.030182016331366" lon="119.19305931526284">
        <ele>150.08290349412454</ele>
        <time>2026-07-01T14:21:42.594Z</time>
      </trkpt>
      <trkpt lat="26.030182016331366" lon="119.19305931526284">
        <ele>149.97678357887497</ele>
        <time>2026-07-01T14:21:47.596Z</time>
      </trkpt>
      <trkpt lat="26.030182016331366" lon="119.19305931526284">
        <ele>150.05702445773787</ele>
        <time>2026-07-01T14:21:52.594Z</time>
      </trkpt>
      <trkpt lat="26.030182016331366" lon="119.19305931526284">
        <ele>150.01991500869065</ele>
        <time>2026-07-01T14:21:57.597Z</time>
      </trkpt>
      <trkpt lat="26.030182016331366" lon="119.19305931526284">
        <ele>150.02292607746392</ele>
        <time>2026-07-01T14:22:02.596Z</time>
      </trkpt>
      <trkpt lat="26.030182016331366" lon="119.19305931526284">
        <ele>149.74184250248973</ele>
        <time>2026-07-01T14:22:07.594Z</time>
      </trkpt>
      <trkpt lat="26.030182016331366" lon="119.19305931526284">
        <ele>149.992571289001</ele>
        <time>2026-07-01T14:22:12.595Z</time>
      </trkpt>
      <trkpt lat="26.030182016331366" lon="119.19305931526284">
        <ele>150.10121417203874</ele>
        <time>2026-07-01T14:22:17.594Z</time>
      </trkpt>
      <trkpt lat="26.030182016331366" lon="119.19305931526284">
        <ele>149.96636695853363</ele>
        <time>2026-07-01T14:22:22.595Z</time>
      </trkpt>
      <trkpt lat="26.030182016331366" lon="119.19305931526284">
        <ele>150.00372035648874</ele>
        <time>2026-07-01T14:22:27.594Z</time>
      </trkpt>
      <trkpt lat="26.030182016331366" lon="119.19305931526284">
        <ele>149.88433643853696</ele>
        <time>2026-07-01T14:22:32.595Z</time>
      </trkpt>
      <trkpt lat="26.030182016331366" lon="119.19305931526284">
        <ele>149.9145281517836</ele>
        <time>2026-07-01T14:22:37.594Z</time>
      </trkpt>
      <trkpt lat="26.030182016331366" lon="119.19305931526284">
        <ele>149.96327452638243</ele>
        <time>2026-07-01T14:22:42.595Z</time>
      </trkpt>
      <trkpt lat="26.030182016331366" lon="119.19305931526284">
        <ele>149.98671192986757</ele>
        <time>2026-07-01T14:22:47.594Z</time>
      </trkpt>
      <trkpt lat="26.030182016331366" lon="119.19305931526284">
        <ele>149.93373370777627</ele>
        <time>2026-07-01T14:22:52.594Z</time>
      </trkpt>
      <trkpt lat="26.030182016331366" lon="119.19305931526284">
        <ele>149.90329780075157</ele>
        <time>2026-07-01T14:22:57.595Z</time>
      </trkpt>
      <trkpt lat="26.030182016331366" lon="119.19305931526284">
        <ele>149.88677781370313</ele>
        <time>2026-07-01T14:23:02.594Z</time>
      </trkpt>
      <trkpt lat="26.030182016331366" lon="119.19305931526284">
        <ele>149.95228826171413</ele>
        <time>2026-07-01T14:23:07.595Z</time>
      </trkpt>
      <trkpt lat="26.030182016331366" lon="119.19305931526284">
        <ele>149.99753547085604</ele>
        <time>2026-07-01T14:23:12.595Z</time>
      </trkpt>
      <trkpt lat="26.030182016331366" lon="119.19305931526284">
        <ele>150.00811488273158</ele>
        <time>2026-07-01T14:23:17.594Z</time>
      </trkpt>
      <trkpt lat="26.030182016331366" lon="119.19305931526284">
        <ele>150.05059539895356</ele>
        <time>2026-07-01T14:23:22.596Z</time>
      </trkpt>
      <trkpt lat="26.030182016331366" lon="119.19305931526284">
        <ele>149.86309649880792</ele>
        <time>2026-07-01T14:23:27.595Z</time>
      </trkpt>
      <trkpt lat="26.030182016331366" lon="119.19305931526284">
        <ele>149.88694057207053</ele>
        <time>2026-07-01T14:23:32.596Z</time>
      </trkpt>
      <trkpt lat="26.030182016331366" lon="119.19305931526284">
        <ele>150.30572629358429</ele>
        <time>2026-07-01T14:23:37.594Z</time>
      </trkpt>
      <trkpt lat="26.030182016331366" lon="119.19305931526284">
        <ele>150.18357193150896</ele>
        <time>2026-07-01T14:23:42.594Z</time>
      </trkpt>
      <trkpt lat="26.030182016331366" lon="119.19305931526284">
        <ele>150.03757453259996</ele>
        <time>2026-07-01T14:23:47.594Z</time>
      </trkpt>
      <trkpt lat="26.030182016331366" lon="119.19305931526284">
        <ele>150.04416634415085</ele>
        <time>2026-07-01T14:23:52.597Z</time>
      </trkpt>
      <trkpt lat="26.030182016331366" lon="119.19305931526284">
        <ele>150.12212907476288</ele>
        <time>2026-07-01T14:23:57.595Z</time>
      </trkpt>
      <trkpt lat="26.030182016331366" lon="119.19305931526284">
        <ele>150.2367955741558</ele>
        <time>2026-07-01T14:24:02.595Z</time>
      </trkpt>
      <trkpt lat="26.030182016331366" lon="119.19305931526284">
        <ele>149.9950126896169</ele>
        <time>2026-07-01T14:24:07.595Z</time>
      </trkpt>
      <trkpt lat="26.030182016331366" lon="119.19305931526284">
        <ele>150.20277798516096</ele>
        <time>2026-07-01T14:24:12.594Z</time>
      </trkpt>
      <trkpt lat="26.030182016331366" lon="119.19305931526284">
        <ele>149.98768848949183</ele>
        <time>2026-07-01T14:24:17.593Z</time>
      </trkpt>
      <trkpt lat="26.030182016331366" lon="119.19305931526284">
        <ele>150.02845993586772</ele>
        <time>2026-07-01T14:24:22.595Z</time>
      </trkpt>
      <trkpt lat="26.030182016331366" lon="119.19305931526284">
        <ele>149.84226349668592</ele>
        <time>2026-07-01T14:24:27.595Z</time>
      </trkpt>
      <trkpt lat="26.030182016331366" lon="119.19305931526284">
        <ele>150.0477470830453</ele>
        <time>2026-07-01T14:24:32.594Z</time>
      </trkpt>
      <trkpt lat="26.030182016331366" lon="119.19305931526284">
        <ele>149.9247005816788</ele>
        <time>2026-07-01T14:24:37.594Z</time>
      </trkpt>
      <trkpt lat="26.030182016331366" lon="119.19305931526284">
        <ele>149.99143196891276</ele>
        <time>2026-07-01T14:24:42.595Z</time>
      </trkpt>
      <trkpt lat="26.030182016331366" lon="119.19305931526284">
        <ele>150.05140920364082</ele>
        <time>2026-07-01T14:24:47.595Z</time>
      </trkpt>
      <trkpt lat="26.030182016331366" lon="119.19305931526284">
        <ele>149.96229796905163</ele>
        <time>2026-07-01T14:24:52.594Z</time>
      </trkpt>
      <trkpt lat="26.030182016331366" lon="119.19305931526284">
        <ele>150.00518519836626</ele>
        <time>2026-07-01T14:24:57.594Z</time>
      </trkpt>
      <trkpt lat="26.030182016331366" lon="119.19305931526284">
        <ele>149.8960550445762</ele>
        <time>2026-07-01T14:25:02.595Z</time>
      </trkpt>
      <trkpt lat="26.030182016331366" lon="119.19305931526284">
        <ele>149.9354426784616</ele>
        <time>2026-07-01T14:25:07.595Z</time>
      </trkpt>
      <trkpt lat="26.030182016331366" lon="119.19305931526284">
        <ele>150.0011975737485</ele>
        <time>2026-07-01T14:25:12.595Z</time>
      </trkpt>
      <trkpt lat="26.030182016331366" lon="119.19305931526284">
        <ele>149.9724704457514</ele>
        <time>2026-07-01T14:25:17.596Z</time>
      </trkpt>
      <trkpt lat="26.030182016331366" lon="119.19305931526284">
        <ele>149.93064128534527</ele>
        <time>2026-07-01T14:25:22.596Z</time>
      </trkpt>
      <trkpt lat="26.030182016331366" lon="119.19305931526284">
        <ele>149.90647159437597</ele>
        <time>2026-07-01T14:25:27.595Z</time>
      </trkpt>
      <trkpt lat="26.030182016331366" lon="119.19305931526284">
        <ele>149.85813238122924</ele>
        <time>2026-07-01T14:25:32.595Z</time>
      </trkpt>
      <trkpt lat="26.030182016331366" lon="119.19305931526284">
        <ele>149.91176125257405</ele>
        <time>2026-07-01T14:25:37.595Z</time>
      </trkpt>
      <trkpt lat="26.030182016331366" lon="119.19305931526284">
        <ele>149.82842910430713</ele>
        <time>2026-07-01T14:25:42.595Z</time>
      </trkpt>
      <trkpt lat="26.030182016331366" lon="119.19305931526284">
        <ele>149.85447032879813</ele>
        <time>2026-07-01T14:25:47.597Z</time>
      </trkpt>
      <trkpt lat="26.030182016331366" lon="119.19305931526284">
        <ele>149.77683512117443</ele>
        <time>2026-07-01T14:25:52.594Z</time>
      </trkpt>
      <trkpt lat="26.030182016331366" lon="119.19305931526284">
        <ele>149.84926207867613</ele>
        <time>2026-07-01T14:25:57.595Z</time>
      </trkpt>
      <trkpt lat="26.030182016331366" lon="119.19305931526284">
        <ele>149.75421197282768</ele>
        <time>2026-07-01T14:26:02.595Z</time>
      </trkpt>
      <trkpt lat="26.030182016331366" lon="119.19305931526284">
        <ele>149.72971718073956</ele>
        <time>2026-07-01T14:26:07.595Z</time>
      </trkpt>
      <trkpt lat="26.030182016331366" lon="119.19305931526284">
        <ele>149.66827700965186</ele>
        <time>2026-07-01T14:26:12.595Z</time>
      </trkpt>
      <trkpt lat="26.030182016331366" lon="119.19305931526284">
        <ele>149.77512617659335</ele>
        <time>2026-07-01T14:26:17.595Z</time>
      </trkpt>
      <trkpt lat="26.030182016331366" lon="119.19305931526284">
        <ele>149.72019596485856</ele>
        <time>2026-07-01T14:26:22.594Z</time>
      </trkpt>
      <trkpt lat="26.030182016331366" lon="119.19305931526284">
        <ele>149.77138277515547</ele>
        <time>2026-07-01T14:26:27.595Z</time>
      </trkpt>
      <trkpt lat="26.030182016331366" lon="119.19305931526284">
        <ele>149.624902909117</ele>
        <time>2026-07-01T14:26:32.594Z</time>
      </trkpt>
      <trkpt lat="26.030182016331366" lon="119.19305931526284">
        <ele>149.6594068692907</ele>
        <time>2026-07-01T14:26:37.595Z</time>
      </trkpt>
      <trkpt lat="26.030182016331366" lon="119.19305931526284">
        <ele>149.60740684105207</ele>
        <time>2026-07-01T14:26:42.595Z</time>
      </trkpt>
      <trkpt lat="26.030182016331366" lon="119.19305931526284">
        <ele>149.89507849356477</ele>
        <time>2026-07-01T14:26:47.595Z</time>
      </trkpt>
      <trkpt lat="26.030182016331366" lon="119.19305931526284">
        <ele>149.69049308253213</ele>
        <time>2026-07-01T14:26:52.595Z</time>
      </trkpt>
      <trkpt lat="26.030182016331366" lon="119.19305931526284">
        <ele>149.6078137260224</ele>
        <time>2026-07-01T14:26:57.597Z</time>
      </trkpt>
      <trkpt lat="26.030182016331366" lon="119.19305931526284">
        <ele>149.5196828140188</ele>
        <time>2026-07-01T14:27:02.595Z</time>
      </trkpt>
      <trkpt lat="26.030182016331366" lon="119.19305931526284">
        <ele>149.66827700965186</ele>
        <time>2026-07-01T14:27:07.595Z</time>
      </trkpt>
      <trkpt lat="26.030182016331366" lon="119.19305931526284">
        <ele>149.68105328019018</ele>
        <time>2026-07-01T14:27:12.593Z</time>
      </trkpt>
      <trkpt lat="26.030182016331366" lon="119.19305931526284">
        <ele>149.71156991356804</ele>
        <time>2026-07-01T14:27:17.596Z</time>
      </trkpt>
      <trkpt lat="26.030182016331366" lon="119.19305931526284">
        <ele>149.61505628113974</ele>
        <time>2026-07-01T14:27:22.594Z</time>
      </trkpt>
      <trkpt lat="26.030182016331366" lon="119.19305931526284">
        <ele>149.6655101760672</ele>
        <time>2026-07-01T14:27:27.597Z</time>
      </trkpt>
      <trkpt lat="26.030182016331366" lon="119.19305931526284">
        <ele>149.78635638899328</ele>
        <time>2026-07-01T14:27:32.595Z</time>
      </trkpt>
      <trkpt lat="26.030182016331366" lon="119.19305931526284">
        <ele>149.64923469930127</ele>
        <time>2026-07-01T14:27:37.595Z</time>
      </trkpt>
      <trkpt lat="26.030182016331366" lon="119.19305931526284">
        <ele>149.806863764717</ele>
        <time>2026-07-01T14:27:42.597Z</time>
      </trkpt>
      <trkpt lat="26.030182016331366" lon="119.19305931526284">
        <ele>149.76072222629648</ele>
        <time>2026-07-01T14:27:47.595Z</time>
      </trkpt>
      <trkpt lat="26.030182016331366" lon="119.19305931526284">
        <ele>149.76983658800177</ele>
        <time>2026-07-01T14:27:52.594Z</time>
      </trkpt>
      <trkpt lat="26.030182016331366" lon="119.19305931526284">
        <ele>149.79897004783828</ele>
        <time>2026-07-01T14:27:57.595Z</time>
      </trkpt>
      <trkpt lat="26.030182016331366" lon="119.19305931526284">
        <ele>149.75982706619942</ele>
        <time>2026-07-01T14:28:02.594Z</time>
      </trkpt>
      <trkpt lat="26.030182016331366" lon="119.19305931526284">
        <ele>149.82525533453776</ele>
        <time>2026-07-01T14:28:07.594Z</time>
      </trkpt>
      <trkpt lat="26.030182016331366" lon="119.19305931526284">
        <ele>149.77593995968948</ele>
        <time>2026-07-01T14:28:12.595Z</time>
      </trkpt>
      <trkpt lat="26.030182016331366" lon="119.19305931526284">
        <ele>149.8199657204128</ele>
        <time>2026-07-01T14:28:17.595Z</time>
      </trkpt>
      <trkpt lat="26.030182016331366" lon="119.19305931526284">
        <ele>149.76080360448847</ele>
        <time>2026-07-01T14:28:22.595Z</time>
      </trkpt>
      <trkpt lat="26.030182016331366" lon="119.19305931526284">
        <ele>149.71962631974415</ele>
        <time>2026-07-01T14:28:27.594Z</time>
      </trkpt>
      <trkpt lat="26.030182016331366" lon="119.19305931526284">
        <ele>149.74550451520338</ele>
        <time>2026-07-01T14:28:32.594Z</time>
      </trkpt>
      <trkpt lat="26.030182016331366" lon="119.19305931526284">
        <ele>149.7454231371295</ele>
        <time>2026-07-01T14:28:37.593Z</time>
      </trkpt>
      <trkpt lat="26.030182016331366" lon="119.19305931526284">
        <ele>149.78204333496504</ele>
        <time>2026-07-01T14:28:42.595Z</time>
      </trkpt>
      <trkpt lat="26.030182016331366" lon="119.19305931526284">
        <ele>149.68097190262324</ele>
        <time>2026-07-01T14:28:47.594Z</time>
      </trkpt>
      <trkpt lat="26.030182016331366" lon="119.19305931526284">
        <ele>149.72670619699707</ele>
        <time>2026-07-01T14:28:52.594Z</time>
      </trkpt>
      <trkpt lat="26.030182016331366" lon="119.19305931526284">
        <ele>149.65558213220328</ele>
        <time>2026-07-01T14:28:57.594Z</time>
      </trkpt>
      <trkpt lat="26.030182016331366" lon="119.19305931526284">
        <ele>149.73964529548954</ele>
        <time>2026-07-01T14:29:02.594Z</time>
      </trkpt>
      <trkpt lat="26.030182016331366" lon="119.19305931526284">
        <ele>149.73948253943038</ele>
        <time>2026-07-01T14:29:07.595Z</time>
      </trkpt>
      <trkpt lat="26.030182016331366" lon="119.19305931526284">
        <ele>149.59739747583103</ele>
        <time>2026-07-01T14:29:12.595Z</time>
      </trkpt>
      <trkpt lat="26.030182016331366" lon="119.19305931526284">
        <ele>149.69171374725678</ele>
        <time>2026-07-01T14:29:17.605Z</time>
      </trkpt>
      <trkpt lat="26.030182016331366" lon="119.19305931526284">
        <ele>148.44882586641785</ele>
        <time>2026-07-01T14:29:22.594Z</time>
      </trkpt>
      <trkpt lat="26.030182016331366" lon="119.19305931526284">
        <ele>149.88213920138202</ele>
        <time>2026-07-01T14:29:27.595Z</time>
      </trkpt>
      <trkpt lat="26.030182016331366" lon="119.19305931526284">
        <ele>149.75461886355137</ele>
        <time>2026-07-01T14:29:32.595Z</time>
      </trkpt>
      <trkpt lat="26.030182016331366" lon="119.19305931526284">
        <ele>149.80971201454764</ele>
        <time>2026-07-01T14:29:37.594Z</time>
      </trkpt>
      <trkpt lat="26.030182016331366" lon="119.19305931526284">
        <ele>149.7962031794233</ele>
        <time>2026-07-01T14:29:42.595Z</time>
      </trkpt>
      <trkpt lat="26.030182016331366" lon="119.19305931526284">
        <ele>149.76023395714458</ele>
        <time>2026-07-01T14:29:47.595Z</time>
      </trkpt>
      <trkpt lat="26.030182016331366" lon="119.19305931526284">
        <ele>149.75193338508117</ele>
        <time>2026-07-01T14:29:52.594Z</time>
      </trkpt>
      <trkpt lat="26.030182016331366" lon="119.19305931526284">
        <ele>149.55890626696265</ele>
        <time>2026-07-01T14:29:57.595Z</time>
      </trkpt>
      <trkpt lat="26.030182016331366" lon="119.19305931526284">
        <ele>149.61237083876472</ele>
        <time>2026-07-01T14:30:02.595Z</time>
      </trkpt>
      <trkpt lat="26.030182016331366" lon="119.19305931526284">
        <ele>149.6253097947763</ele>
        <time>2026-07-01T14:30:07.595Z</time>
      </trkpt>
      <trkpt lat="26.030182016331366" lon="119.19305931526284">
        <ele>149.70546657971772</ele>
        <time>2026-07-01T14:30:12.595Z</time>
      </trkpt>
      <trkpt lat="26.030182016331366" lon="119.19305931526284">
        <ele>149.70798929060726</ele>
        <time>2026-07-01T14:30:17.594Z</time>
      </trkpt>
      <trkpt lat="26.030182016331366" lon="119.19305931526284">
        <ele>149.81736160367672</ele>
        <time>2026-07-01T14:30:22.594Z</time>
      </trkpt>
      <trkpt lat="26.030182016331366" lon="119.19305931526284">
        <ele>149.99045540893417</ele>
        <time>2026-07-01T14:30:27.593Z</time>
      </trkpt>
      <trkpt lat="26.030182016331366" lon="119.19305931526284">
        <ele>150.2040800917781</ele>
        <time>2026-07-01T14:30:32.594Z</time>
      </trkpt>
      <trkpt lat="26.030182016331366" lon="119.19305931526284">
        <ele>150.32281662539452</ele>
        <time>2026-07-01T14:30:37.598Z</time>
      </trkpt>
      <trkpt lat="26.030182016331366" lon="119.19305931526284">
        <ele>150.57038544423528</ele>
        <time>2026-07-01T14:30:42.594Z</time>
      </trkpt>
      <trkpt lat="26.030182016331366" lon="119.19305931526284">
        <ele>150.48550171610356</ele>
        <time>2026-07-01T14:30:47.595Z</time>
      </trkpt>
      <trkpt lat="26.030182016331366" lon="119.19305931526284">
        <ele>150.36114790046662</ele>
        <time>2026-07-01T14:30:52.594Z</time>
      </trkpt>
      <trkpt lat="26.030182016331366" lon="119.19305931526284">
        <ele>150.7447125921348</ele>
        <time>2026-07-01T14:30:57.596Z</time>
      </trkpt>
      <trkpt lat="26.030182016331366" lon="119.19305931526284">
        <ele>150.52537989121598</ele>
        <time>2026-07-01T14:31:02.594Z</time>
      </trkpt>
      <trkpt lat="26.030182016331366" lon="119.19305931526284">
        <ele>150.47280583943842</ele>
        <time>2026-07-01T14:31:07.594Z</time>
      </trkpt>
      <trkpt lat="26.030182016331366" lon="119.19305931526284">
        <ele>150.48542033223202</ele>
        <time>2026-07-01T14:31:12.595Z</time>
      </trkpt>
      <trkpt lat="26.030182016331366" lon="119.19305931526284">
        <ele>150.46499299997205</ele>
        <time>2026-07-01T14:31:17.595Z</time>
      </trkpt>
      <trkpt lat="26.030182016331366" lon="119.19305931526284">
        <ele>150.41160542097333</ele>
        <time>2026-07-01T14:31:22.595Z</time>
      </trkpt>
      <trkpt lat="26.030182016331366" lon="119.19305931526284">
        <ele>150.47980484644978</ele>
        <time>2026-07-01T14:31:27.594Z</time>
      </trkpt>
      <trkpt lat="26.030182016331366" lon="119.19305931526284">
        <ele>150.52367082342712</ele>
        <time>2026-07-01T14:31:32.594Z</time>
      </trkpt>
      <trkpt lat="26.030182016331366" lon="119.19305931526284">
        <ele>150.36171758078044</ele>
        <time>2026-07-01T14:31:37.595Z</time>
      </trkpt>
      <trkpt lat="26.030182016331366" lon="119.19305931526284">
        <ele>150.21181135319048</ele>
        <time>2026-07-01T14:31:42.594Z</time>
      </trkpt>
      <trkpt lat="26.030182016331366" lon="119.19305931526284">
        <ele>150.18487403571942</ele>
        <time>2026-07-01T14:31:47.595Z</time>
      </trkpt>
      <trkpt lat="26.030182016331366" lon="119.19305931526284">
        <ele>150.16933017737807</ele>
        <time>2026-07-01T14:31:52.600Z</time>
      </trkpt>
      <trkpt lat="26.030182016331366" lon="119.19305931526284">
        <ele>150.13628938301972</ele>
        <time>2026-07-01T14:31:57.593Z</time>
      </trkpt>
      <trkpt lat="26.030182016331366" lon="119.19305931526284">
        <ele>150.09820308056203</ele>
        <time>2026-07-01T14:32:02.595Z</time>
      </trkpt>
      <trkpt lat="26.030182016331366" lon="119.19305931526284">
        <ele>150.05604789159247</ele>
        <time>2026-07-01T14:32:07.595Z</time>
      </trkpt>
      <trkpt lat="26.030182016331366" lon="119.19305931526284">
        <ele>150.52525034087998</ele>
        <time>2026-07-01T14:32:12.594Z</time>
      </trkpt>
    </trkseg>
  </trk>
</gpx>